YAOGAN-36 04A           
1 54746U 22171A   26068.56522612  .00008745  00000+0  40159-3 0  9995
2 54746  34.9894 125.4870 0007143 123.6550 236.4846 15.19645021179957
IRIDE FM7               
1 66701U 25276AM  26068.75283777  .00010516  00000+0  50729-3 0  9998
2 66701  97.4286 144.0153 0003982  10.7537 349.3782 15.18866259 15329
